M2 PATHFINDER           
1 45727U 20037E   26068.47969609  .00004468  00000+0  32592-3 0  9994
2 45727  97.8158 258.5983 0012405 127.8041 232.4310 15.04175941310501
STARLINK-35133          
1 65535U 25200R   26068.75727598  .00003088  00000+0  21804-3 0  9991
2 65535  97.6015 139.9050 0000249 127.2074 232.9175 15.05660939 29148
